{
"type": "FeatureCollection",
"name": "tunisia_adm2",
"crs": { "type": "name", "properties": { "name": "urn:ogc:def:crs:OGC:1.3:CRS84" } },
"features": [
{ "type": "Feature", "properties": { "ADM2_CODE": 39236, "ADM2_NAME": "Ariana Ville", "ADM0_CODE": 231, "ADM0_NAME": "Tunisia", "center_lon": 10.175, "center_lat": 36.8, "radius_km": 15 }, "geometry": { "type": "Polygon", "coordinates": [ [ [ 10.31, 36.8 ], [ 10.309349938100747, 36.786767686055505 ], [ 10.307406012854436, 36.773662806527817 ], [ 10.304186945323849, 36.760811568570645 ], [ 10.299723736889025, 36.74833773663071 ], [ 10.294059370687028, 36.736361440528491 ], [ 10.287248397660845, 36.724998018542351 ], [ 10.27935641120397, 36.714356906637903 ], [ 10.270459415460184, 36.704540584539814 ], [ 10.260643093362093, 36.695643588796031 ], [ 10.250001981457647, 36.687751602339155 ], [ 10.238638559471511, 36.680940629312971 ], [ 10.226662263369288, 36.675276263110973 ], [ 10.214188431429353, 36.670813054676152 ], [ 10.201337193472177, 36.667593987145558 ], [ 10.188232313944491, 36.66565006189925 ], [ 10.175, 36.665 ], [ 10.16176768605551, 36.66565006189925 ], [ 10.148662806527824, 36.667593987145558 ], [ 10.135811568570649, 36.670813054676152 ], [ 10.123337736630713, 36.675276263110973 ], [ 10.111361440528491, 36.680940629312971 ], [ 10.099998018542355, 36.687751602339155 ], [ 10.089356906637908, 36.695643588796031 ], [ 10.079540584539817, 36.704540584539814 ], [ 10.070643588796031, 36.714356906637903 ], [ 10.062751602339157, 36.724998018542351 ], [ 10.055940629312973, 36.736361440528491 ], [ 10.050276263110977, 36.74833773663071 ], [ 10.045813054676152, 36.760811568570645 ], [ 10.042593987145565, 36.773662806527817 ], [ 10.040650061899255, 36.786767686055505 ], [ 10.04, 36.8 ], [ 10.040650061899255, 36.813232313944489 ], [ 10.042593987145565, 36.826337193472177 ], [ 10.045813054676152, 36.839188431429349 ], [ 10.050276263110977, 36.851662263369285 ], [ 10.055940629312973, 36.863638559471504 ], [ 10.062751602339157, 36.875001981457643 ], [ 10.070643588796031, 36.885643093362091 ], [ 10.079540584539817, 36.895459415460181 ], [ 10.089356906637908, 36.904356411203963 ], [ 10.099998018542355, 36.912248397660839 ], [ 10.111361440528491, 36.919059370687023 ], [ 10.123337736630713, 36.924723736889021 ], [ 10.135811568570649, 36.929186945323842 ], [ 10.148662806527824, 36.932406012854436 ], [ 10.16176768605551, 36.934349938100745 ], [ 10.175, 36.935 ], [ 10.188232313944491, 36.934349938100745 ], [ 10.201337193472177, 36.932406012854436 ], [ 10.214188431429353, 36.929186945323842 ], [ 10.226662263369288, 36.924723736889021 ], [ 10.238638559471511, 36.919059370687023 ], [ 10.250001981457647, 36.912248397660839 ], [ 10.260643093362093, 36.904356411203963 ], [ 10.270459415460184, 36.895459415460181 ], [ 10.27935641120397, 36.885643093362091 ], [ 10.287248397660845, 36.875001981457643 ], [ 10.294059370687028, 36.863638559471504 ], [ 10.299723736889025, 36.851662263369285 ], [ 10.304186945323849, 36.839188431429349 ], [ 10.307406012854436, 36.826337193472177 ], [ 10.309349938100747, 36.813232313944489 ], [ 10.31, 36.8 ] ] ] } },
{ "type": "Feature", "properties": { "ADM2_CODE": 39237, "ADM2_NAME": "El Mnihla", "ADM0_CODE": 231, "ADM0_NAME": "Tunisia", "center_lon": 10.175, "center_lat": 36.77, "radius_km": 15 }, "geometry": { "type": "Polygon", "coordinates": [ [ [ 10.31, 36.77 ], [ 10.309349938100747, 36.756767686055511 ], [ 10.307406012854436, 36.743662806527823 ], [ 10.304186945323849, 36.730811568570651 ], [ 10.299723736889025, 36.718337736630716 ], [ 10.294059370687028, 36.706361440528497 ], [ 10.287248397660845, 36.694998018542357 ], [ 10.27935641120397, 36.684356906637909 ], [ 10.270459415460184, 36.67454058453982 ], [ 10.260643093362093, 36.665643588796037 ], [ 10.250001981457647, 36.657751602339161 ], [ 10.238638559471511, 36.650940629312977 ], [ 10.226662263369288, 36.645276263110979 ], [ 10.214188431429353, 36.640813054676158 ], [ 10.201337193472177, 36.637593987145564 ], [ 10.188232313944491, 36.635650061899256 ], [ 10.175, 36.635 ], [ 10.16176768605551, 36.635650061899256 ], [ 10.148662806527824, 36.637593987145564 ], [ 10.135811568570649, 36.640813054676158 ], [ 10.123337736630713, 36.645276263110979 ], [ 10.111361440528491, 36.650940629312977 ], [ 10.099998018542355, 36.657751602339161 ], [ 10.089356906637908, 36.665643588796037 ], [ 10.079540584539817, 36.67454058453982 ], [ 10.070643588796031, 36.684356906637909 ], [ 10.062751602339157, 36.694998018542357 ], [ 10.055940629312973, 36.706361440528497 ], [ 10.050276263110977, 36.718337736630716 ], [ 10.045813054676152, 36.730811568570651 ], [ 10.042593987145565, 36.743662806527823 ], [ 10.040650061899255, 36.756767686055511 ], [ 10.04, 36.77 ], [ 10.040650061899255, 36.783232313944495 ], [ 10.042593987145565, 36.796337193472183 ], [ 10.045813054676152, 36.809188431429355 ], [ 10.050276263110977, 36.821662263369291 ], [ 10.055940629312973, 36.83363855947151 ], [ 10.062751602339157, 36.845001981457649 ], [ 10.070643588796031, 36.855643093362097 ], [ 10.079540584539817, 36.865459415460187 ], [ 10.089356906637908, 36.874356411203969 ], [ 10.099998018542355, 36.882248397660845 ], [ 10.111361440528491, 36.889059370687029 ], [ 10.123337736630713, 36.894723736889027 ], [ 10.135811568570649, 36.899186945323848 ], [ 10.148662806527824, 36.902406012854442 ], [ 10.16176768605551, 36.904349938100751 ], [ 10.175, 36.905 ], [ 10.188232313944491, 36.904349938100751 ], [ 10.201337193472177, 36.902406012854442 ], [ 10.214188431429353, 36.899186945323848 ], [ 10.226662263369288, 36.894723736889027 ], [ 10.238638559471511, 36.889059370687029 ], [ 10.250001981457647, 36.882248397660845 ], [ 10.260643093362093, 36.874356411203969 ], [ 10.270459415460184, 36.865459415460187 ], [ 10.27935641120397, 36.855643093362097 ], [ 10.287248397660845, 36.845001981457649 ], [ 10.294059370687028, 36.83363855947151 ], [ 10.299723736889025, 36.821662263369291 ], [ 10.304186945323849, 36.809188431429355 ], [ 10.307406012854436, 36.796337193472183 ], [ 10.309349938100747, 36.783232313944495 ], [ 10.31, 36.77 ] ] ] } },
{ "type": "Feature", "properties": { "ADM2_CODE": 39238, "ADM2_NAME": "Ettadhamen", "ADM0_CODE": 231, "ADM0_NAME": "Tunisia", "center_lon": 10.2, "center_lat": 36.83, "radius_km": 15 }, "geometry": { "type": "Polygon", "coordinates": [ [ [ 10.335, 36.83 ], [ 10.334349938100745, 36.816767686055506 ], [ 10.332406012854435, 36.803662806527818 ], [ 10.329186945323848, 36.790811568570646 ], [ 10.324723736889023, 36.778337736630711 ], [ 10.319059370687027, 36.766361440528492 ], [ 10.312248397660843, 36.754998018542352 ], [ 10.304356411203969, 36.744356906637904 ], [ 10.295459415460183, 36.734540584539815 ], [ 10.285643093362092, 36.725643588796032 ], [ 10.275001981457645, 36.717751602339156 ], [ 10.263638559471509, 36.710940629312972 ], [ 10.251662263369287, 36.705276263110974 ], [ 10.239188431429351, 36.700813054676154 ], [ 10.226337193472176, 36.697593987145559 ], [ 10.21323231394449, 36.695650061899251 ], [ 10.2, 36.695 ], [ 10.186767686055509, 36.695650061899251 ], [ 10.173662806527823, 36.697593987145559 ], [ 10.160811568570647, 36.700813054676154 ], [ 10.148337736630712, 36.705276263110974 ], [ 10.136361440528489, 36.710940629312972 ], [ 10.124998018542353, 36.717751602339156 ], [ 10.114356906637907, 36.725643588796032 ], [ 10.104540584539816, 36.734540584539815 ], [ 10.09564358879603, 36.744356906637904 ], [ 10.087751602339155, 36.754998018542352 ], [ 10.080940629312972, 36.766361440528492 ], [ 10.075276263110975, 36.778337736630711 ], [ 10.070813054676151, 36.790811568570646 ], [ 10.067593987145564, 36.803662806527818 ], [ 10.065650061899253, 36.816767686055506 ], [ 10.065, 36.83 ], [ 10.065650061899253, 36.84323231394449 ], [ 10.067593987145564, 36.856337193472179 ], [ 10.070813054676151, 36.86918843142935 ], [ 10.075276263110975, 36.881662263369286 ], [ 10.080940629312972, 36.893638559471505 ], [ 10.087751602339155, 36.905001981457644 ], [ 10.09564358879603, 36.915643093362092 ], [ 10.104540584539816, 36.925459415460182 ], [ 10.114356906637907, 36.934356411203964 ], [ 10.124998018542353, 36.94224839766084 ], [ 10.136361440528489, 36.949059370687024 ], [ 10.148337736630712, 36.954723736889022 ], [ 10.160811568570647, 36.959186945323843 ], [ 10.173662806527823, 36.962406012854437 ], [ 10.186767686055509, 36.964349938100746 ], [ 10.2, 36.965 ], [ 10.21323231394449, 36.964349938100746 ], [ 10.226337193472176, 36.962406012854437 ], [ 10.239188431429351, 36.959186945323843 ], [ 10.251662263369287, 36.954723736889022 ], [ 10.263638559471509, 36.949059370687024 ], [ 10.275001981457645, 36.94224839766084 ], [ 10.285643093362092, 36.934356411203964 ], [ 10.295459415460183, 36.925459415460182 ], [ 10.304356411203969, 36.915643093362092 ], [ 10.312248397660843, 36.905001981457644 ], [ 10.319059370687027, 36.893638559471505 ], [ 10.324723736889023, 36.881662263369286 ], [ 10.329186945323848, 36.86918843142935 ], [ 10.332406012854435, 36.856337193472179 ], [ 10.334349938100745, 36.84323231394449 ], [ 10.335, 36.83 ] ] ] } },
{ "type": "Feature", "properties": { "ADM2_CODE": 39239, "ADM2_NAME": "Kalaat El Andalous", "ADM0_CODE": 231, "ADM0_NAME": "Tunisia", "center_lon": 10.15, "center_lat": 36.75, "radius_km": 15 }, "geometry": { "type": "Polygon", "coordinates": [ [ [ 10.285, 36.75 ], [ 10.284349938100746, 36.736767686055508 ], [ 10.282406012854436, 36.72366280652782 ], [ 10.279186945323849, 36.710811568570648 ], [ 10.274723736889024, 36.698337736630712 ], [ 10.269059370687028, 36.686361440528493 ], [ 10.262248397660844, 36.674998018542354 ], [ 10.25435641120397, 36.664356906637906 ], [ 10.245459415460184, 36.654540584539816 ], [ 10.235643093362093, 36.645643588796034 ], [ 10.225001981457646, 36.637751602339158 ], [ 10.21363855947151, 36.630940629312974 ], [ 10.201662263369288, 36.625276263110976 ], [ 10.189188431429352, 36.620813054676155 ], [ 10.176337193472177, 36.617593987145561 ], [ 10.163232313944491, 36.615650061899252 ], [ 10.15, 36.615 ], [ 10.13676768605551, 36.615650061899252 ], [ 10.123662806527824, 36.617593987145561 ], [ 10.110811568570648, 36.620813054676155 ], [ 10.098337736630713, 36.625276263110976 ], [ 10.08636144052849, 36.630940629312974 ], [ 10.074998018542354, 36.637751602339158 ], [ 10.064356906637908, 36.645643588796034 ], [ 10.054540584539817, 36.654540584539816 ], [ 10.045643588796031, 36.664356906637906 ], [ 10.037751602339156, 36.674998018542354 ], [ 10.030940629312973, 36.686361440528493 ], [ 10.025276263110976, 36.698337736630712 ], [ 10.020813054676152, 36.710811568570648 ], [ 10.017593987145565, 36.72366280652782 ], [ 10.015650061899255, 36.736767686055508 ], [ 10.015, 36.75 ], [ 10.015650061899255, 36.763232313944492 ], [ 10.017593987145565, 36.77633719347218 ], [ 10.020813054676152, 36.789188431429352 ], [ 10.025276263110976, 36.801662263369288 ], [ 10.030940629312973, 36.813638559471507 ], [ 10.037751602339156, 36.825001981457646 ], [ 10.045643588796031, 36.835643093362094 ], [ 10.054540584539817, 36.845459415460184 ], [ 10.064356906637908, 36.854356411203966 ], [ 10.074998018542354, 36.862248397660842 ], [ 10.08636144052849, 36.869059370687026 ], [ 10.098337736630713, 36.874723736889024 ], [ 10.110811568570648, 36.879186945323845 ], [ 10.123662806527824, 36.882406012854439 ], [ 10.13676768605551, 36.884349938100748 ], [ 10.15, 36.885 ], [ 10.163232313944491, 36.884349938100748 ], [ 10.176337193472177, 36.882406012854439 ], [ 10.189188431429352, 36.879186945323845 ], [ 10.201662263369288, 36.874723736889024 ], [ 10.21363855947151, 36.869059370687026 ], [ 10.225001981457646, 36.862248397660842 ], [ 10.235643093362093, 36.854356411203966 ], [ 10.245459415460184, 36.845459415460184 ], [ 10.25435641120397, 36.835643093362094 ], [ 10.262248397660844, 36.825001981457646 ], [ 10.269059370687028, 36.813638559471507 ], [ 10.274723736889024, 36.801662263369288 ], [ 10.279186945323849, 36.789188431429352 ], [ 10.282406012854436, 36.77633719347218 ], [ 10.284349938100746, 36.763232313944492 ], [ 10.285, 36.75 ] ] ] } },
{ "type": "Feature", "properties": { "ADM2_CODE": 39240, "ADM2_NAME": "Raoued", "ADM0_CODE": 231, "ADM0_NAME": "Tunisia", "center_lon": 10.24, "center_lat": 36.81, "radius_km": 15 }, "geometry": { "type": "Polygon", "coordinates": [ [ [ 10.375, 36.81 ], [ 10.374349938100746, 36.79676768605551 ], [ 10.372406012854436, 36.783662806527822 ], [ 10.369186945323849, 36.77081156857065 ], [ 10.364723736889024, 36.758337736630715 ], [ 10.359059370687028, 36.746361440528496 ], [ 10.352248397660844, 36.734998018542356 ], [ 10.34435641120397, 36.724356906637908 ], [ 10.335459415460184, 36.714540584539819 ], [ 10.325643093362093, 36.705643588796036 ], [ 10.315001981457646, 36.69775160233916 ], [ 10.30363855947151, 36.690940629312976 ], [ 10.291662263369288, 36.685276263110978 ], [ 10.279188431429352, 36.680813054676157 ], [ 10.266337193472177, 36.677593987145563 ], [ 10.253232313944491, 36.675650061899255 ], [ 10.24, 36.675 ], [ 10.22676768605551, 36.675650061899255 ], [ 10.213662806527823, 36.677593987145563 ], [ 10.200811568570648, 36.680813054676157 ], [ 10.188337736630713, 36.685276263110978 ], [ 10.17636144052849, 36.690940629312976 ], [ 10.164998018542354, 36.69775160233916 ], [ 10.154356906637908, 36.705643588796036 ], [ 10.144540584539817, 36.714540584539819 ], [ 10.135643588796031, 36.724356906637908 ], [ 10.127751602339156, 36.734998018542356 ], [ 10.120940629312972, 36.746361440528496 ], [ 10.115276263110976, 36.758337736630715 ], [ 10.110813054676152, 36.77081156857065 ], [ 10.107593987145565, 36.783662806527822 ], [ 10.105650061899254, 36.79676768605551 ], [ 10.105, 36.81 ], [ 10.105650061899254, 36.823232313944494 ], [ 10.107593987145565, 36.836337193472183 ], [ 10.110813054676152, 36.849188431429354 ], [ 10.115276263110976, 36.86166226336929 ], [ 10.120940629312972, 36.873638559471509 ], [ 10.127751602339156, 36.885001981457648 ], [ 10.135643588796031, 36.895643093362096 ], [ 10.144540584539817, 36.905459415460186 ], [ 10.154356906637908, 36.914356411203968 ], [ 10.164998018542354, 36.922248397660844 ], [ 10.17636144052849, 36.929059370687028 ], [ 10.188337736630713, 36.934723736889026 ], [ 10.200811568570648, 36.939186945323847 ], [ 10.213662806527823, 36.942406012854441 ], [ 10.22676768605551, 36.94434993810075 ], [ 10.24, 36.945 ], [ 10.253232313944491, 36.94434993810075 ], [ 10.266337193472177, 36.942406012854441 ], [ 10.279188431429352, 36.939186945323847 ], [ 10.291662263369288, 36.934723736889026 ], [ 10.30363855947151, 36.929059370687028 ], [ 10.315001981457646, 36.922248397660844 ], [ 10.325643093362093, 36.914356411203968 ], [ 10.335459415460184, 36.905459415460186 ], [ 10.34435641120397, 36.895643093362096 ], [ 10.352248397660844, 36.885001981457648 ], [ 10.359059370687028, 36.873638559471509 ], [ 10.364723736889024, 36.86166226336929 ], [ 10.369186945323849, 36.849188431429354 ], [ 10.372406012854436, 36.836337193472183 ], [ 10.374349938100746, 36.823232313944494 ], [ 10.375, 36.81 ] ] ] } }
]
}
